{
    "satellites": [
        {
            "name": "starlink381",
            "title": "Starlink-381 (G17-36) (new)",
            "tle": [
                "1 70583C 26097Z   26122.45256944 -.00090844  00000+0 -13163-3 0  1220",
                "2 70583  97.2856 317.1700 0005499 255.6878  56.5693 16.05310867    11"
            ],
            "stdMag": 5,
            "noradId": "70583",
            "intDes": null,
            "tleUrl": "http://celestrak.org/NORAD/elements/supplemental/sup-gp.php?FILE=starlink&FORMAT=tle",
            "launchDate": "2026-04-30T02:42:49.000Z",
            "active": true,
            "batch": [
                {
                    "noradId": "70583",
                    "tle": [
                        "1 70583C 26097Z   26122.45256944 -.00090844  00000+0 -13163-3 0  1220",
                        "2 70583  97.2856 317.1700 0005499 255.6878  56.5693 16.05310867    11"
                    ]
                },
                {
                    "noradId": "70580",
                    "tle": [
                        "1 70580C 26097W   26122.44840278 -.00066733  00000+0 -95680-4 0  1220",
                        "2 70580  97.2856 317.1656 0005933 255.9425  32.4792 16.05466455    10"
                    ]
                },
                {
                    "noradId": "70582",
                    "tle": [
                        "1 70582C 26097Y   26122.46090278 -.00122890  00000+0 -17710-3 0  1225",
                        "2 70582  97.2857 317.1794 0005466 256.6292 103.8668 16.05417086    18"
                    ]
                },
                {
                    "noradId": "70581",
                    "tle": [
                        "1 70581C 26097X   26122.46229167 -.00136380  00000+0 -19964-3 0  1227",
                        "2 70581  97.2857 317.1807 0004502 256.8866 111.2079 16.05177128    10"
                    ]
                },
                {
                    "noradId": "70579",
                    "tle": [
                        "1 70579C 26097V   26122.42826389 -.00097148  00000+0 -14259-3 0  1229",
                        "2 70579  97.2855 317.1430 0004846 256.6671 274.7323 16.05109219    13"
                    ]
                },
                {
                    "noradId": "70578",
                    "tle": [
                        "1 70578C 26097U   26122.41090278 -.00212000  00000+0 -31392-3 0  1220",
                        "2 70578  97.2854 317.1238 0004383 256.6736 174.3128 16.05027566    17"
                    ]
                },
                {
                    "noradId": "70577",
                    "tle": [
                        "1 70577C 26097T   26122.43798611 -.00168070  00000+0 -25027-3 0  1222",
                        "2 70577  97.2856 317.1538 0003864 257.7289 329.5667 16.04916839    10"
                    ]
                },
                {
                    "noradId": "70576",
                    "tle": [
                        "1 70576C 26097S   26122.41090278 -.00164530  00000+0 -24272-3 0  1221",
                        "2 70576  97.2855 317.1240 0004407 257.3943 173.6744 16.05064508    17"
                    ]
                },
                {
                    "noradId": "70575",
                    "tle": [
                        "1 70575C 26097R   26122.42687500 -.00267710  00000+0 -39971-3 0  1227",
                        "2 70575  97.2857 317.1416 0003773 259.3050 263.7472 16.04924184    12"
                    ]
                },
                {
                    "noradId": "70574",
                    "tle": [
                        "1 70574C 26097Q   26122.45048611 -.00290020  00000+0 -43545-3 0  1225",
                        "2 70574  97.2856 317.1673 0003329 259.8245  39.4665 16.04846670    18"
                    ]
                },
                {
                    "noradId": "70573",
                    "tle": [
                        "1 70573C 26097P   26122.41576389 -.00360940  00000+0 -54272-3 0  1226",
                        "2 70573  97.2857 317.1292 0003575 259.0347 199.5672 16.04857279    16"
                    ]
                },
                {
                    "noradId": "70572",
                    "tle": [
                        "1 70572C 26097N   26122.44076389 -.00330400  00000+0 -49947-3 0  1224",
                        "2 70572  97.2858 317.1567 0003176 259.1340 343.7314 16.04755039    19"
                    ]
                },
                {
                    "noradId": "70571",
                    "tle": [
                        "1 70571C 26097M   26122.40187500 -.00478180  00000+0 -72352-3 0  1221",
                        "2 70571  97.2858 317.1140 0003375 259.8303 118.4206 16.04815046    14"
                    ]
                },
                {
                    "noradId": "70570",
                    "tle": [
                        "1 70570C 26097L   26122.40326389 -.00521640  00000+0 -79250-3 0  1224",
                        "2 70570  97.2858 317.1155 0003102 260.6133 125.5768 16.04771871    17"
                    ]
                },
                {
                    "noradId": "70569",
                    "tle": [
                        "1 70569C 26097K   26122.42965278 -.00521800  00000+0 -79680-3 0  1225",
                        "2 70569  97.2859 317.1444 0002682 262.2991 276.1605 16.04689514    14"
                    ]
                },
                {
                    "noradId": "70568",
                    "tle": [
                        "1 70568C 26097J   26122.43868056 -.00560730  00000+0 -85965-3 0  1229",
                        "2 70568  97.2859 317.1544 0002486 261.7200 328.7750 16.04644639    17"
                    ]
                },
                {
                    "noradId": "70567",
                    "tle": [
                        "1 70567C 26097H   26122.44770833 -.00621520  00000+0 -96174-3 0  1223",
                        "2 70567  97.2859 317.1641 0002108 263.4512  18.9259 16.04522727    15"
                    ]
                },
                {
                    "noradId": "70566",
                    "tle": [
                        "1 70566C 26097G   26122.42965278 -.00592650  00000+0 -91276-3 0  1228",
                        "2 70566  97.2861 317.1445 0002182 264.7227 273.5726 16.04586384    15"
                    ]
                },
                {
                    "noradId": "70565",
                    "tle": [
                        "1 70565C 26097F   26122.39909722 -.00685540  00000+0 -10625-2 0  1224",
                        "2 70565  97.2860 317.1108 0002141 264.9344  96.7557 16.04529433    15"
                    ]
                },
                {
                    "noradId": "70564",
                    "tle": [
                        "1 70564C 26097E   26122.41645833 -.00718060  00000+0 -11178-2 0  1224",
                        "2 70564  97.2861 317.1298 0001973 266.4182 195.2834 16.04473910    15"
                    ]
                },
                {
                    "noradId": "70563",
                    "tle": [
                        "1 70563C 26097D   26122.38104167 -.00705870  00000+0 -11035-2 0  1226",
                        "2 70563  97.2861 317.0909 0002121 261.8940 355.1573 16.04395837    17"
                    ]
                },
                {
                    "noradId": "70562",
                    "tle": [
                        "1 70562C 26097C   26122.45256944 -.00688000  00000+0 -10774-2 0  1228",
                        "2 70562  97.2861 317.1694 0001718 267.6518  42.3220 16.04358710    17"
                    ]
                },
                {
                    "noradId": "70561",
                    "tle": [
                        "1 70561C 26097B   26122.40951389 -.00846410  00000+0 -13299-2 0  1223",
                        "2 70561  97.2862 317.1221 0001752 268.1106 153.1638 16.04385164    17"
                    ]
                },
                {
                    "noradId": "70560",
                    "tle": [
                        "1 70560C 26097A   26122.40951389 -.00880080  00000+0 -13879-2 0  1227",
                        "2 70560  97.2863 317.1221 0001513 270.3349 150.8617 16.04341824    12"
                    ]
                }
            ]
        },
        {
            "name": "starlink380",
            "title": "Starlink-380 (G17-16) (new)",
            "tle": [
                "1 68843C 26094E   26122.45187500 -.01691700  00000+0 -31373-2 0  1225",
                "2 68843  97.2796 136.1234 0001335  66.2448  31.0595 16.01992833    19"
            ],
            "stdMag": 5,
            "noradId": "68843",
            "intDes": null,
            "tleUrl": "http://celestrak.org/NORAD/elements/supplemental/sup-gp.php?FILE=starlink&FORMAT=tle",
            "launchDate": "2026-04-26T14:37:09.000Z",
            "active": true,
            "batch": [
                {
                    "noradId": "68843",
                    "tle": [
                        "1 68843C 26094E   26122.45187500 -.01691700  00000+0 -31373-2 0  1225",
                        "2 68843  97.2796 136.1234 0001335  66.2448  31.0595 16.01992833    19"
                    ]
                }
            ]
        }
    ],
    "config": {}
}